KUIPER-00136            
1 65962U 25228R   26008.66671296 -.00016033  00000+0 -14280-2 0  9997
2 65962  51.8941 254.3821 0004359 138.7884 145.6093 14.95079409  4160
KUIPER-00137            
1 65963U 25228S   26008.66671296 -.01154548  00000+0 -84043-1 0  9996
2 65963  51.8913 252.7948 0005291 142.3538 321.6788 15.06457007  4709
KUIPER-00138            
1 65964U 25228T   26008.66671296 -.01128402  00000+0 -62408-1 0  9998
2 65964  51.8900 251.7058 0008626 134.9133 136.6155 15.16185510  5587
KUIPER-00140            
1 65965U 25228U   26008.66671296  .00028482  00000+0  19200-2 0  9996
2 65965  51.8887 253.0768 0006579 125.2134 117.9633 15.06426700  5125
KUIPER-00141            
1 65966U 25228V   26008.66671296 -.01713297  00000+0 -81206-1 0  9999
2 65966  51.8841 250.8563 0003990 165.1833 117.5054 15.22328776  5683
KUIPER-00146            
1 65967U 25228W   26008.66671296 -.01910593  00000+0 -11543+0 0  9993
2 65967  51.8897 251.6746 0005459 143.4074  86.0285 15.13764527  5386
KUIPER-00149            
1 65968U 25228X   26008.66671296 -.00307492  00000+0 -97181-2 0  9996
2 65968  51.8783 250.4661 0005249 132.7109  21.6204 15.33520346  4376
KUIPER-00154            
1 65969U 25228Y   26008.37960435  .00036662  00000+0  10095-2 0  9996
2 65969  51.8773 251.8573 0006703 103.1633 257.0102 15.36784865 14513
