<?xml version="1.0" encoding="UTF-8"?>
<ndm xmlns:xsi="http://www.w3.org/2001/XMLSchema-instance" xsi:noNamespaceSchemaLocation="https://sanaregistry.org/r/ndmxml_unqualified/ndmxml-2.0.0-master-2.0.xsd">
<omm id="CCSDS_OMM_VERS" version="2.0">
<header><CREATION_DATE/><ORIGINATOR/></header><body><segment><metadata><OBJECT_NAME>KUIPER-00136</OBJECT_NAME><OBJECT_ID>2025-228R</OBJECT_ID><CENTER_NAME>EARTH</CENTER_NAME><REF_FRAME>TEME</REF_FRAME><TIME_SYSTEM>UTC</TIME_SYSTEM><MEAN_ELEMENT_THEORY>SGP4</MEAN_ELEMENT_THEORY></metadata><data><meanElements><EPOCH>2026-01-08T16:00:03.999744</EPOCH><MEAN_MOTION>14.95079409</MEAN_MOTION><ECCENTRICITY>.00043597</ECCENTRICITY><INCLINATION>51.8941</INCLINATION><RA_OF_ASC_NODE>254.3821</RA_OF_ASC_NODE><ARG_OF_PERICENTER>138.7884</ARG_OF_PERICENTER><MEAN_ANOMALY>145.6093</MEAN_ANOMALY></meanElements><tleParameters><EPHEMERIS_TYPE>0</EPHEMERIS_TYPE><CLASSIFICATION_TYPE>U</CLASSIFICATION_TYPE><NORAD_CAT_ID>65962</NORAD_CAT_ID><ELEMENT_SET_NO>999</ELEMENT_SET_NO><REV_AT_EPOCH>416</REV_AT_EPOCH><BSTAR>-.14280161E-2</BSTAR><MEAN_MOTION_DOT>-.16033E-3</MEAN_MOTION_DOT><MEAN_MOTION_DDOT>0</MEAN_MOTION_DDOT></tleParameters></data></segment></body></omm>
<omm id="CCSDS_OMM_VERS" version="2.0">
<header><CREATION_DATE/><ORIGINATOR/></header><body><segment><metadata><OBJECT_NAME>KUIPER-00137</OBJECT_NAME><OBJECT_ID>2025-228S</OBJECT_ID><CENTER_NAME>EARTH</CENTER_NAME><REF_FRAME>TEME</REF_FRAME><TIME_SYSTEM>UTC</TIME_SYSTEM><MEAN_ELEMENT_THEORY>SGP4</MEAN_ELEMENT_THEORY></metadata><data><meanElements><EPOCH>2026-01-08T16:00:03.999744</EPOCH><MEAN_MOTION>15.06457007</MEAN_MOTION><ECCENTRICITY>.00052913</ECCENTRICITY><INCLINATION>51.8913</INCLINATION><RA_OF_ASC_NODE>252.7948</RA_OF_ASC_NODE><ARG_OF_PERICENTER>142.3538</ARG_OF_PERICENTER><MEAN_ANOMALY>321.6788</MEAN_ANOMALY></meanElements><tleParameters><EPHEMERIS_TYPE>0</EPHEMERIS_TYPE><CLASSIFICATION_TYPE>U</CLASSIFICATION_TYPE><NORAD_CAT_ID>65963</NORAD_CAT_ID><ELEMENT_SET_NO>999</ELEMENT_SET_NO><REV_AT_EPOCH>470</REV_AT_EPOCH><BSTAR>-.84043417E-1</BSTAR><MEAN_MOTION_DOT>-.1154548E-1</MEAN_MOTION_DOT><MEAN_MOTION_DDOT>0</MEAN_MOTION_DDOT></tleParameters></data></segment></body></omm>
<omm id="CCSDS_OMM_VERS" version="2.0">
<header><CREATION_DATE/><ORIGINATOR/></header><body><segment><metadata><OBJECT_NAME>KUIPER-00138</OBJECT_NAME><OBJECT_ID>2025-228T</OBJECT_ID><CENTER_NAME>EARTH</CENTER_NAME><REF_FRAME>TEME</REF_FRAME><TIME_SYSTEM>UTC</TIME_SYSTEM><MEAN_ELEMENT_THEORY>SGP4</MEAN_ELEMENT_THEORY></metadata><data><meanElements><EPOCH>2026-01-08T16:00:03.999744</EPOCH><MEAN_MOTION>15.16185510</MEAN_MOTION><ECCENTRICITY>.00086265</ECCENTRICITY><INCLINATION>51.8900</INCLINATION><RA_OF_ASC_NODE>251.7058</RA_OF_ASC_NODE><ARG_OF_PERICENTER>134.9133</ARG_OF_PERICENTER><MEAN_ANOMALY>136.6155</MEAN_ANOMALY></meanElements><tleParameters><EPHEMERIS_TYPE>0</EPHEMERIS_TYPE><CLASSIFICATION_TYPE>U</CLASSIFICATION_TYPE><NORAD_CAT_ID>65964</NORAD_CAT_ID><ELEMENT_SET_NO>999</ELEMENT_SET_NO><REV_AT_EPOCH>558</REV_AT_EPOCH><BSTAR>-.62407873E-1</BSTAR><MEAN_MOTION_DOT>-.1128402E-1</MEAN_MOTION_DOT><MEAN_MOTION_DDOT>0</MEAN_MOTION_DDOT></tleParameters></data></segment></body></omm>
<omm id="CCSDS_OMM_VERS" version="2.0">
<header><CREATION_DATE/><ORIGINATOR/></header><body><segment><metadata><OBJECT_NAME>KUIPER-00140</OBJECT_NAME><OBJECT_ID>2025-228U</OBJECT_ID><CENTER_NAME>EARTH</CENTER_NAME><REF_FRAME>TEME</REF_FRAME><TIME_SYSTEM>UTC</TIME_SYSTEM><MEAN_ELEMENT_THEORY>SGP4</MEAN_ELEMENT_THEORY></metadata><data><meanElements><EPOCH>2026-01-08T16:00:03.999744</EPOCH><MEAN_MOTION>15.06426700</MEAN_MOTION><ECCENTRICITY>.0006579</ECCENTRICITY><INCLINATION>51.8887</INCLINATION><RA_OF_ASC_NODE>253.0768</RA_OF_ASC_NODE><ARG_OF_PERICENTER>125.2134</ARG_OF_PERICENTER><MEAN_ANOMALY>117.9633</MEAN_ANOMALY></meanElements><tleParameters><EPHEMERIS_TYPE>0</EPHEMERIS_TYPE><CLASSIFICATION_TYPE>U</CLASSIFICATION_TYPE><NORAD_CAT_ID>65965</NORAD_CAT_ID><ELEMENT_SET_NO>999</ELEMENT_SET_NO><REV_AT_EPOCH>512</REV_AT_EPOCH><BSTAR>.19199773E-2</BSTAR><MEAN_MOTION_DOT>.28482E-3</MEAN_MOTION_DOT><MEAN_MOTION_DDOT>0</MEAN_MOTION_DDOT></tleParameters></data></segment></body></omm>
<omm id="CCSDS_OMM_VERS" version="2.0">
<header><CREATION_DATE/><ORIGINATOR/></header><body><segment><metadata><OBJECT_NAME>KUIPER-00141</OBJECT_NAME><OBJECT_ID>2025-228V</OBJECT_ID><CENTER_NAME>EARTH</CENTER_NAME><REF_FRAME>TEME</REF_FRAME><TIME_SYSTEM>UTC</TIME_SYSTEM><MEAN_ELEMENT_THEORY>SGP4</MEAN_ELEMENT_THEORY></metadata><data><meanElements><EPOCH>2026-01-08T16:00:03.999744</EPOCH><MEAN_MOTION>15.22328776</MEAN_MOTION><ECCENTRICITY>.00039907</ECCENTRICITY><INCLINATION>51.8841</INCLINATION><RA_OF_ASC_NODE>250.8563</RA_OF_ASC_NODE><ARG_OF_PERICENTER>165.1833</ARG_OF_PERICENTER><MEAN_ANOMALY>117.5054</MEAN_ANOMALY></meanElements><tleParameters><EPHEMERIS_TYPE>0</EPHEMERIS_TYPE><CLASSIFICATION_TYPE>U</CLASSIFICATION_TYPE><NORAD_CAT_ID>65966</NORAD_CAT_ID><ELEMENT_SET_NO>999</ELEMENT_SET_NO><REV_AT_EPOCH>568</REV_AT_EPOCH><BSTAR>-.81206471E-1</BSTAR><MEAN_MOTION_DOT>-.1713297E-1</MEAN_MOTION_DOT><MEAN_MOTION_DDOT>0</MEAN_MOTION_DDOT></tleParameters></data></segment></body></omm>
<omm id="CCSDS_OMM_VERS" version="2.0">
<header><CREATION_DATE/><ORIGINATOR/></header><body><segment><metadata><OBJECT_NAME>KUIPER-00146</OBJECT_NAME><OBJECT_ID>2025-228W</OBJECT_ID><CENTER_NAME>EARTH</CENTER_NAME><REF_FRAME>TEME</REF_FRAME><TIME_SYSTEM>UTC</TIME_SYSTEM><MEAN_ELEMENT_THEORY>SGP4</MEAN_ELEMENT_THEORY></metadata><data><meanElements><EPOCH>2026-01-08T16:00:03.999744</EPOCH><MEAN_MOTION>15.13764527</MEAN_MOTION><ECCENTRICITY>.00054596</ECCENTRICITY><INCLINATION>51.8897</INCLINATION><RA_OF_ASC_NODE>251.6746</RA_OF_ASC_NODE><ARG_OF_PERICENTER>143.4074</ARG_OF_PERICENTER><MEAN_ANOMALY>86.0285</MEAN_ANOMALY></meanElements><tleParameters><EPHEMERIS_TYPE>0</EPHEMERIS_TYPE><CLASSIFICATION_TYPE>U</CLASSIFICATION_TYPE><NORAD_CAT_ID>65967</NORAD_CAT_ID><ELEMENT_SET_NO>999</ELEMENT_SET_NO><REV_AT_EPOCH>538</REV_AT_EPOCH><BSTAR>-.1154329E+0</BSTAR><MEAN_MOTION_DOT>-.1910593E-1</MEAN_MOTION_DOT><MEAN_MOTION_DDOT>0</MEAN_MOTION_DDOT></tleParameters></data></segment></body></omm>
<omm id="CCSDS_OMM_VERS" version="2.0">
<header><CREATION_DATE/><ORIGINATOR/></header><body><segment><metadata><OBJECT_NAME>KUIPER-00149</OBJECT_NAME><OBJECT_ID>2025-228X</OBJECT_ID><CENTER_NAME>EARTH</CENTER_NAME><REF_FRAME>TEME</REF_FRAME><TIME_SYSTEM>UTC</TIME_SYSTEM><MEAN_ELEMENT_THEORY>SGP4</MEAN_ELEMENT_THEORY></metadata><data><meanElements><EPOCH>2026-01-08T16:00:03.999744</EPOCH><MEAN_MOTION>15.33520346</MEAN_MOTION><ECCENTRICITY>.00052492</ECCENTRICITY><INCLINATION>51.8783</INCLINATION><RA_OF_ASC_NODE>250.4661</RA_OF_ASC_NODE><ARG_OF_PERICENTER>132.7109</ARG_OF_PERICENTER><MEAN_ANOMALY>21.6204</MEAN_ANOMALY></meanElements><tleParameters><EPHEMERIS_TYPE>0</EPHEMERIS_TYPE><CLASSIFICATION_TYPE>U</CLASSIFICATION_TYPE><NORAD_CAT_ID>65968</NORAD_CAT_ID><ELEMENT_SET_NO>999</ELEMENT_SET_NO><REV_AT_EPOCH>437</REV_AT_EPOCH><BSTAR>-.97181234E-2</BSTAR><MEAN_MOTION_DOT>-.307492E-2</MEAN_MOTION_DOT><MEAN_MOTION_DDOT>0</MEAN_MOTION_DDOT></tleParameters></data></segment></body></omm>
<omm id="CCSDS_OMM_VERS" version="2.0">
<header><CREATION_DATE/><ORIGINATOR/></header><body><segment><metadata><OBJECT_NAME>KUIPER-00154</OBJECT_NAME><OBJECT_ID>2025-228Y</OBJECT_ID><CENTER_NAME>EARTH</CENTER_NAME><REF_FRAME>TEME</REF_FRAME><TIME_SYSTEM>UTC</TIME_SYSTEM><MEAN_ELEMENT_THEORY>SGP4</MEAN_ELEMENT_THEORY></metadata><data><meanElements><EPOCH>2026-01-08T09:06:37.815840</EPOCH><MEAN_MOTION>15.36784865</MEAN_MOTION><ECCENTRICITY>.0006703</ECCENTRICITY><INCLINATION>51.8773</INCLINATION><RA_OF_ASC_NODE>251.8573</RA_OF_ASC_NODE><ARG_OF_PERICENTER>103.1633</ARG_OF_PERICENTER><MEAN_ANOMALY>257.0102</MEAN_ANOMALY></meanElements><tleParameters><EPHEMERIS_TYPE>0</EPHEMERIS_TYPE><CLASSIFICATION_TYPE>U</CLASSIFICATION_TYPE><NORAD_CAT_ID>65969</NORAD_CAT_ID><ELEMENT_SET_NO>999</ELEMENT_SET_NO><REV_AT_EPOCH>1451</REV_AT_EPOCH><BSTAR>.1009474E-2</BSTAR><MEAN_MOTION_DOT>.36662E-3</MEAN_MOTION_DOT><MEAN_MOTION_DDOT>0</MEAN_MOTION_DDOT></tleParameters></data></segment></body></omm>

</ndm>
